STARLINK-36422          
1 67344U 26003L   26024.16667824  .00097739  00000+0  63440-3 0  9993
2 67344  42.9988 123.0791 0001853 242.0792  71.1842 15.74952787  3508
STARLINK-35676          
1 67345U 26003M   26024.16667824 -.00095002  00000+0 -62116-3 0  9996
2 67345  42.9988 123.0750 0001714 273.9904  41.1175 15.75080792  3503
STARLINK-36472          
1 67346U 26003N   26024.16667824 -.00016025  00000+0 -10134-3 0  9998
2 67346  42.9987 123.0701 0001815 268.7563  48.2640 15.75053333  3500
STARLINK-36420          
1 67347U 26003P   26024.16667824  .00032204  00000+0  21208-3 0  9998
2 67347  42.9987 123.0605 0001525 259.0555  61.8129 15.75024539  3516
STARLINK-36467          
1 67348U 26003Q   26024.16667824 -.00026831  00000+0 -17202-3 0  9999
2 67348  42.9989 123.0657 0001372 277.1629  41.7761 15.75052055  3512
STARLINK-36457          
1 67349U 26003R   26024.16667824 -.00011769  00000+0 -73581-4 0  9997
2 67349  42.9987 123.0556 0001434 260.7859  61.9920 15.75049336  3510
STARLINK-36475          
1 67350U 26003S   26024.16667824 -.00034489  00000+0 -22219-3 0  9994
2 67350  42.9988 123.0505 0001611 256.4217  68.2854 15.75052048  3503
STARLINK-36478          
1 67351U 26003T   26024.16667824  .00084341  00000+0  54768-3 0  9999
2 67351  42.9987 123.0458 0001920 247.6313  78.9993 15.74996497  3508
STARLINK-36479          
1 67352U 26003U   26024.16667824 -.00000798  00000+0 -20842-5 0  9994
2 67352  42.9989 123.0410 0001659 263.4430  65.0951 15.75041359  3515
STARLINK-36474          
1 67353U 26003V   26024.16667824 -.00056389  00000+0 -36605-3 0  9994
2 67353  42.9990 123.0369 0001739 256.5090  73.9469 15.75061744  3517
STARLINK-36448          
1 67354U 26003W   26024.16667824  .00081288  00000+0  52801-3 0  9995
2 67354  42.9989 123.0218 0001769 247.1110  89.1013 15.75003494  3513
STARLINK-36477          
1 67355U 26003X   26024.16667824  .00002062  00000+0  16523-4 0  9991
2 67355  42.9987 123.0321 0001755 262.0095  70.3595 15.75044602  3502
