CCSDS_OMM_VERS = 2.0
CREATION_DATE  = 
ORIGINATOR     = 

OBJECT_NAME    = STARLINK-36422
OBJECT_ID      = 2026-003L
CENTER_NAME    = EARTH
REF_FRAME      = TEME
TIME_SYSTEM    = UTC
MEAN_ELEMENT_THEORY = SGP/SGP4

EPOCH          = 2026-01-24T04:00:00.999936
MEAN_MOTION    = 15.74952787
ECCENTRICITY   = .0001853
INCLINATION    = 42.9988
RA_OF_ASC_NODE = 123.0791
ARG_OF_PERICENTER = 242.0792
MEAN_ANOMALY   = 71.1842

EPHEMERIS_TYPE = 0
CLASSIFICATION_TYPE = U
NORAD_CAT_ID   = 67344
ELEMENT_SET_NO = 999
REV_AT_EPOCH   = 350
BSTAR          = .6344E-3
MEAN_MOTION_DOT = .97739E-3
MEAN_MOTION_DDOT = 0

CCSDS_OMM_VERS = 2.0
CREATION_DATE  = 
ORIGINATOR     = 

OBJECT_NAME    = STARLINK-35676
OBJECT_ID      = 2026-003M
CENTER_NAME    = EARTH
REF_FRAME      = TEME
TIME_SYSTEM    = UTC
MEAN_ELEMENT_THEORY = SGP/SGP4

EPOCH          = 2026-01-24T04:00:00.999936
MEAN_MOTION    = 15.75080792
ECCENTRICITY   = .0001714
INCLINATION    = 42.9988
RA_OF_ASC_NODE = 123.0750
ARG_OF_PERICENTER = 273.9904
MEAN_ANOMALY   = 41.1175

EPHEMERIS_TYPE = 0
CLASSIFICATION_TYPE = U
NORAD_CAT_ID   = 67345
ELEMENT_SET_NO = 999
REV_AT_EPOCH   = 350
BSTAR          = -.62116E-3
MEAN_MOTION_DOT = -.95002E-3
MEAN_MOTION_DDOT = 0

CCSDS_OMM_VERS = 2.0
CREATION_DATE  = 
ORIGINATOR     = 

OBJECT_NAME    = STARLINK-36472
OBJECT_ID      = 2026-003N
CENTER_NAME    = EARTH
REF_FRAME      = TEME
TIME_SYSTEM    = UTC
MEAN_ELEMENT_THEORY = SGP/SGP4

EPOCH          = 2026-01-24T04:00:00.999936
MEAN_MOTION    = 15.75053333
ECCENTRICITY   = .0001815
INCLINATION    = 42.9987
RA_OF_ASC_NODE = 123.0701
ARG_OF_PERICENTER = 268.7563
MEAN_ANOMALY   = 48.2640

EPHEMERIS_TYPE = 0
CLASSIFICATION_TYPE = U
NORAD_CAT_ID   = 67346
ELEMENT_SET_NO = 999
REV_AT_EPOCH   = 350
BSTAR          = -.10134E-3
MEAN_MOTION_DOT = -.16025E-3
MEAN_MOTION_DDOT = 0

CCSDS_OMM_VERS = 2.0
CREATION_DATE  = 
ORIGINATOR     = 

OBJECT_NAME    = STARLINK-36420
OBJECT_ID      = 2026-003P
CENTER_NAME    = EARTH
REF_FRAME      = TEME
TIME_SYSTEM    = UTC
MEAN_ELEMENT_THEORY = SGP/SGP4

EPOCH          = 2026-01-24T04:00:00.999936
MEAN_MOTION    = 15.75024539
ECCENTRICITY   = .0001525
INCLINATION    = 42.9987
RA_OF_ASC_NODE = 123.0605
ARG_OF_PERICENTER = 259.0555
MEAN_ANOMALY   = 61.8129

EPHEMERIS_TYPE = 0
CLASSIFICATION_TYPE = U
NORAD_CAT_ID   = 67347
ELEMENT_SET_NO = 999
REV_AT_EPOCH   = 351
BSTAR          = .21208E-3
MEAN_MOTION_DOT = .32204E-3
MEAN_MOTION_DDOT = 0

CCSDS_OMM_VERS = 2.0
CREATION_DATE  = 
ORIGINATOR     = 

OBJECT_NAME    = STARLINK-36467
OBJECT_ID      = 2026-003Q
CENTER_NAME    = EARTH
REF_FRAME      = TEME
TIME_SYSTEM    = UTC
MEAN_ELEMENT_THEORY = SGP/SGP4

EPOCH          = 2026-01-24T04:00:00.999936
MEAN_MOTION    = 15.75052055
ECCENTRICITY   = .0001372
INCLINATION    = 42.9989
RA_OF_ASC_NODE = 123.0657
ARG_OF_PERICENTER = 277.1629
MEAN_ANOMALY   = 41.7761

EPHEMERIS_TYPE = 0
CLASSIFICATION_TYPE = U
NORAD_CAT_ID   = 67348
ELEMENT_SET_NO = 999
REV_AT_EPOCH   = 351
BSTAR          = -.17202E-3
MEAN_MOTION_DOT = -.26831E-3
MEAN_MOTION_DDOT = 0

CCSDS_OMM_VERS = 2.0
CREATION_DATE  = 
ORIGINATOR     = 

OBJECT_NAME    = STARLINK-36457
OBJECT_ID      = 2026-003R
CENTER_NAME    = EARTH
REF_FRAME      = TEME
TIME_SYSTEM    = UTC
MEAN_ELEMENT_THEORY = SGP/SGP4

EPOCH          = 2026-01-24T04:00:00.999936
MEAN_MOTION    = 15.75049336
ECCENTRICITY   = .0001434
INCLINATION    = 42.9987
RA_OF_ASC_NODE = 123.0556
ARG_OF_PERICENTER = 260.7859
MEAN_ANOMALY   = 61.9920

EPHEMERIS_TYPE = 0
CLASSIFICATION_TYPE = U
NORAD_CAT_ID   = 67349
ELEMENT_SET_NO = 999
REV_AT_EPOCH   = 351
BSTAR          = -.73581E-4
MEAN_MOTION_DOT = -.11769E-3
MEAN_MOTION_DDOT = 0

CCSDS_OMM_VERS = 2.0
CREATION_DATE  = 
ORIGINATOR     = 

OBJECT_NAME    = STARLINK-36475
OBJECT_ID      = 2026-003S
CENTER_NAME    = EARTH
REF_FRAME      = TEME
TIME_SYSTEM    = UTC
MEAN_ELEMENT_THEORY = SGP/SGP4

EPOCH          = 2026-01-24T04:00:00.999936
MEAN_MOTION    = 15.75052048
ECCENTRICITY   = .0001611
INCLINATION    = 42.9988
RA_OF_ASC_NODE = 123.0505
ARG_OF_PERICENTER = 256.4217
MEAN_ANOMALY   = 68.2854

EPHEMERIS_TYPE = 0
CLASSIFICATION_TYPE = U
NORAD_CAT_ID   = 67350
ELEMENT_SET_NO = 999
REV_AT_EPOCH   = 350
BSTAR          = -.22219E-3
MEAN_MOTION_DOT = -.34489E-3
MEAN_MOTION_DDOT = 0

CCSDS_OMM_VERS = 2.0
CREATION_DATE  = 
ORIGINATOR     = 

OBJECT_NAME    = STARLINK-36478
OBJECT_ID      = 2026-003T
CENTER_NAME    = EARTH
REF_FRAME      = TEME
TIME_SYSTEM    = UTC
MEAN_ELEMENT_THEORY = SGP/SGP4

EPOCH          = 2026-01-24T04:00:00.999936
MEAN_MOTION    = 15.74996497
ECCENTRICITY   = .000192
INCLINATION    = 42.9987
RA_OF_ASC_NODE = 123.0458
ARG_OF_PERICENTER = 247.6313
MEAN_ANOMALY   = 78.9993

EPHEMERIS_TYPE = 0
CLASSIFICATION_TYPE = U
NORAD_CAT_ID   = 67351
ELEMENT_SET_NO = 999
REV_AT_EPOCH   = 350
BSTAR          = .54768E-3
MEAN_MOTION_DOT = .84341E-3
MEAN_MOTION_DDOT = 0

CCSDS_OMM_VERS = 2.0
CREATION_DATE  = 
ORIGINATOR     = 

OBJECT_NAME    = STARLINK-36479
OBJECT_ID      = 2026-003U
CENTER_NAME    = EARTH
REF_FRAME      = TEME
TIME_SYSTEM    = UTC
MEAN_ELEMENT_THEORY = SGP/SGP4

EPOCH          = 2026-01-24T04:00:00.999936
MEAN_MOTION    = 15.75041359
ECCENTRICITY   = .0001659
INCLINATION    = 42.9989
RA_OF_ASC_NODE = 123.0410
ARG_OF_PERICENTER = 263.4430
MEAN_ANOMALY   = 65.0951

EPHEMERIS_TYPE = 0
CLASSIFICATION_TYPE = U
NORAD_CAT_ID   = 67352
ELEMENT_SET_NO = 999
REV_AT_EPOCH   = 351
BSTAR          = -.20842E-5
MEAN_MOTION_DOT = -.798E-5
MEAN_MOTION_DDOT = 0

CCSDS_OMM_VERS = 2.0
CREATION_DATE  = 
ORIGINATOR     = 

OBJECT_NAME    = STARLINK-36474
OBJECT_ID      = 2026-003V
CENTER_NAME    = EARTH
REF_FRAME      = TEME
TIME_SYSTEM    = UTC
MEAN_ELEMENT_THEORY = SGP/SGP4

EPOCH          = 2026-01-24T04:00:00.999936
MEAN_MOTION    = 15.75061744
ECCENTRICITY   = .0001739
INCLINATION    = 42.9990
RA_OF_ASC_NODE = 123.0369
ARG_OF_PERICENTER = 256.5090
MEAN_ANOMALY   = 73.9469

EPHEMERIS_TYPE = 0
CLASSIFICATION_TYPE = U
NORAD_CAT_ID   = 67353
ELEMENT_SET_NO = 999
REV_AT_EPOCH   = 351
BSTAR          = -.36605E-3
MEAN_MOTION_DOT = -.56389E-3
MEAN_MOTION_DDOT = 0

CCSDS_OMM_VERS = 2.0
CREATION_DATE  = 
ORIGINATOR     = 

OBJECT_NAME    = STARLINK-36448
OBJECT_ID      = 2026-003W
CENTER_NAME    = EARTH
REF_FRAME      = TEME
TIME_SYSTEM    = UTC
MEAN_ELEMENT_THEORY = SGP/SGP4

EPOCH          = 2026-01-24T04:00:00.999936
MEAN_MOTION    = 15.75003494
ECCENTRICITY   = .0001769
INCLINATION    = 42.9989
RA_OF_ASC_NODE = 123.0218
ARG_OF_PERICENTER = 247.1110
MEAN_ANOMALY   = 89.1013

EPHEMERIS_TYPE = 0
CLASSIFICATION_TYPE = U
NORAD_CAT_ID   = 67354
ELEMENT_SET_NO = 999
REV_AT_EPOCH   = 351
BSTAR          = .52801E-3
MEAN_MOTION_DOT = .81288E-3
MEAN_MOTION_DDOT = 0

CCSDS_OMM_VERS = 2.0
CREATION_DATE  = 
ORIGINATOR     = 

OBJECT_NAME    = STARLINK-36477
OBJECT_ID      = 2026-003X
CENTER_NAME    = EARTH
REF_FRAME      = TEME
TIME_SYSTEM    = UTC
MEAN_ELEMENT_THEORY = SGP/SGP4

EPOCH          = 2026-01-24T04:00:00.999936
MEAN_MOTION    = 15.75044602
ECCENTRICITY   = .0001755
INCLINATION    = 42.9987
RA_OF_ASC_NODE = 123.0321
ARG_OF_PERICENTER = 262.0095
MEAN_ANOMALY   = 70.3595

EPHEMERIS_TYPE = 0
CLASSIFICATION_TYPE = U
NORAD_CAT_ID   = 67355
ELEMENT_SET_NO = 999
REV_AT_EPOCH   = 350
BSTAR          = .16523E-4
MEAN_MOTION_DOT = .2062E-4
MEAN_MOTION_DDOT = 0

